HULIANWANG DIGUI-151    
1 67527U 26013F   26021.15608316 -.00000614  00000+0 -32354-3 0  9992
2 67527  50.0035 177.7600 0009841 238.6748 121.3191 13.98327198   267
HULIANWANG DIGUI-152    
1 67528U 26013G   26024.08719212 -.00000118  00000+0  21603-4 0  9990
2 67528  50.0047 165.9375 0009745 257.1222 102.8592 13.97836723   677
HULIANWANG DIGUI-153    
1 67529U 26013H   26021.44172990 -.00000104  00000+0  31747-4 0  9999
2 67529  50.0011 176.6007 0008856 242.1618 117.8387 13.98470310   298
HULIANWANG DIGUI-154    
1 67530U 26013J   26021.22721932 -.00000008  00000+0  98151-4 0  9998
2 67530  50.0045 177.4718 0008317 246.2151 113.7880 13.98568419   262
CZ-12 R/B               
1 67531U 26013K   26027.70620719  .00000222  00000+0  19144-3 0  9990
2 67531  49.9906 150.4522 0069085 156.7136 203.6927 14.14453600  1184
STARLINK-36587          
1 67532U 26014A   26027.58337963 -.01253496  50499-3 -23159-2 0  9991
2 67532  97.2829 270.2144 0001161  77.4846 315.3904 16.01249261  2084
STARLINK-36417          
1 67533U 26014B   26027.58337963 -.01250029  50276-3 -23013-2 0  9993
2 67533  97.2828 270.2146 0001184  84.6985 309.1240 16.01310636  2084
STARLINK-36576          
1 67534U 26014C   26027.58337963 -.01248588  50238-3 -22827-2 0  9991
2 67534  97.2829 270.2150 0001228  83.1268 312.0805 16.01431442  2087
STARLINK-36574          
1 67535U 26014D   26027.58337963 -.01237431  49509-3 -22396-2 0  9997
2 67535  97.2829 270.2156 0001169  69.8731 327.1726 16.01604487  2084
STARLINK-36572          
1 67536U 26014E   26027.58337963 -.01236577  49539-3 -22170-2 0  9991
2 67536  97.2828 270.2165 0001162  71.7563 327.0094 16.01768680  2085
STARLINK-36561          
1 67537U 26014F   26027.58337963 -.01229880  49115-3 -21888-2 0  9996
2 67537  97.2823 270.2171 0001094  77.1944 323.0233 16.01895094  2086
STARLINK-36397          
1 67538U 26014G   26027.58337963 -.01220176  48461-3 -21576-2 0  9993
2 67538  97.2822 270.2176 0001179  83.9203 317.6165 16.02004070  2088
